OBJECT_NAME,OBJECT_ID,EPOCH,MEAN_MOTION,ECCENTRICITY,INCLINATION,RA_OF_ASC_NODE,ARG_OF_PERICENTER,MEAN_ANOMALY,EPHEMERIS_TYPE,CLASSIFICATION_TYPE,NORAD_CAT_ID,ELEMENT_SET_NO,REV_AT_EPOCH,BSTAR,MEAN_MOTION_DOT,MEAN_MOTION_DDOT
STARLINK-36044,2025-278J,2026-05-28T23:50:55.838976,15.27595295,.0001743,43.0030,20.5828,271.2903,88.7749,0,U,66799,999,2749,.11861E-2,.32536E-3,0
STARLINK-35996,2025-278K,2026-05-29T01:17:40.945632,15.27614272,.0001083,42.9965,20.1844,338.7379,21.3427,0,U,66800,999,2750,.15532E-2,.42772E-3,0
STARLINK-36080,2025-278L,2026-05-29T01:03:04.802112,15.27609645,.0001803,43.0024,20.9688,262.0533,98.0114,0,U,66801,999,2749,.14813E-2,.40763E-3,0
STARLINK-35604,2025-278M,2026-05-29T00:39:01.605888,15.27595342,.0001539,43.0035,20.8369,259.3561,100.7118,0,U,66802,999,2749,.13882E-2,.38153E-3,0
STARLINK-35565,2025-278N,2026-05-29T00:48:16.971264,15.27593599,.0000655,43.0027,20.8911,236.4918,123.5871,0,U,66803,999,2749,.11848E-2,.32499E-3,0
STARLINK-36038,2025-278P,2026-05-29T01:34:19.745184,15.27589694,.000169,43.0010,20.2714,270.0808,89.9850,0,U,66804,999,2750,.11564E-2,.31707E-3,0
STARLINK-36049,2025-278Q,2026-05-29T00:51:58.258080,15.27624218,.0000994,43.0012,20.9141,304.9260,55.1498,0,U,66805,999,2749,.1171E-2,.32146E-3,0
STARLINK-36069,2025-278R,2026-05-29T00:57:31.872672,15.27590853,.0002259,43.0078,20.9355,250.3629,109.6979,0,U,66806,999,2749,.77888E-3,.2124E-3,0
STARLINK-36000,2025-278S,2026-05-29T01:39:53.049600,15.27577437,.0001008,43.0045,20.2961,282.9700,77.1039,0,U,66807,999,2750,.39453E-3,.10609E-3,0
STARLINK-36071,2025-278T,2026-05-29T01:08:24.901152,15.27604028,.0002877,43.0028,20.1266,249.5460,110.5082,0,U,66808,999,2750,.11419E-2,.3132E-3,0
STARLINK-35979,2025-278U,2026-05-29T00:59:23.314848,15.27615468,.0001298,43.0036,20.9451,297.5933,62.4787,0,U,66809,999,2749,.87269E-3,.23856E-3,0
STARLINK-36046,2025-278V,2026-05-29T00:37:10.912800,15.27577785,.0001681,43.0039,20.8275,257.5365,102.5299,0,U,66810,999,2749,.83648E-3,.22826E-3,0
STARLINK-36045,2025-278W,2026-05-29T00:26:04.674624,15.27587744,.0001024,43.0041,20.7674,268.1671,91.9063,0,U,66811,999,2749,.91489E-3,.25005E-3,0
STARLINK-36054,2025-278X,2026-05-29T00:22:22.466784,15.27609203,.0001439,43.0040,20.7477,275.9572,84.1115,0,U,66812,999,2749,.16864E-2,.46478E-3,0
STARLINK-36042,2025-278Y,2026-05-28T22:11:13.166016,15.27601729,.0000622,43.0006,20.9217,354.0185,6.0660,0,U,66813,999,2748,.12096E-2,.33194E-3,0
STARLINK-35984,2025-278Z,2026-05-28T08:07:30.415008,15.27584640,.0000927,42.9987,24.2649,309.9656,50.1114,0,U,66814,999,2739,.79708E-3,.2174E-3,0
STARLINK-35985,2025-278AA,2026-05-28T22:42:40.599936,15.27588209,.0000749,42.9996,21.0850,32.6228,327.4669,0,U,66815,999,2869,.83129E-3,.22689E-3,0
STARLINK-36098,2025-278AB,2026-05-28T22:01:57.760896,15.27593407,.0001055,43.0021,20.8719,287.4282,72.6454,0,U,66816,999,2748,.10631E-2,.29118E-3,0
STARLINK-35995,2025-278AC,2026-05-29T00:11:16.313280,15.27602203,.0000772,43.0012,20.6927,290.0520,70.0249,0,U,66817,999,2749,.92219E-3,.25218E-3,0
STARLINK-35994,2025-278AD,2026-05-28T08:33:24.172128,15.27594221,.0001632,43.0026,24.4067,262.3967,97.6699,0,U,66818,999,2739,.27546E-3,.7329E-4,0
STARLINK-35989,2025-278AE,2026-05-29T00:27:55.565568,15.27580360,.000127,43.0047,20.7709,263.2807,96.7900,0,U,66819,999,2749,.89746E-3,.24516E-3,0
KOMPSAT-7,2025-279A,2026-05-28T20:56:16.791648,15.00247046,.0010514,97.7006,97.6059,72.6827,287.5546,0,U,66820,999,2672,.25861E-3,.318E-4,0
STARLINK-35966,2025-280A,2026-05-29T00:25:52.646016,15.00070391,.0003242,70.0026,132.1140,231.4005,128.6865,0,U,66821,999,2810,.7012E-1,.939045E-2,0
STARLINK-35958,2025-280B,2026-05-29T04:26:42.652032,14.98338825,.0003594,70.0007,131.4884,264.0229,96.0521,0,U,66822,999,2813,.22193E-3,.2557E-4,0
STARLINK-35957,2025-280C,2026-05-29T00:50:24.533952,14.98350673,.0004154,70.0002,131.7657,263.2881,96.7805,0,U,66823,999,2811,.46635E-3,.5479E-4,0
STARLINK-35896,2025-280D,2026-05-29T04:50:45.489696,14.98344116,.0003111,70.0004,131.5485,266.7394,93.3410,0,U,66824,999,2813,.28926E-3,.3361E-4,0
STARLINK-35476,2025-280E,2026-05-29T05:02:48.725952,14.98329640,.0003205,70.0004,131.5766,267.6084,92.4709,0,U,66825,999,2812,.86588E-3,.10254E-3,0
STARLINK-35898,2025-280F,2026-05-29T00:38:22.689600,14.98339326,.0004242,70.0007,131.7377,260.7070,99.3610,0,U,66826,999,2811,.39487E-3,.4623E-4,0
STARLINK-35959,2025-280G,2026-05-29T04:38:43.838016,14.98344552,.0003603,70.0009,131.5173,261.2438,98.8313,0,U,66827,999,2813,.52857E-3,.6222E-4,0
STARLINK-35982,2025-280H,2026-05-29T00:08:21.769728,14.98336499,.0003681,70.0006,132.0656,264.3893,95.6847,0,U,66828,999,2810,.31542E-3,.3673E-4,0
