STARLINK-36044          
1 66799U 25278J   26148.99370184  .00032536  00000+0  11861-2 0  9990
2 66799  43.0030  20.5828 0001743 271.2903  88.7749 15.27595295 27498
STARLINK-35996          
1 66800U 25278K   26149.05394613  .00042772  00000+0  15532-2 0  9996
2 66800  42.9965  20.1844 0001083 338.7379  21.3427 15.27614272 27508
STARLINK-36080          
1 66801U 25278L   26149.04380558  .00040763  00000+0  14813-2 0  9998
2 66801  43.0024  20.9688 0001803 262.0533  98.0114 15.27609645 27492
STARLINK-35604          
1 66802U 25278M   26149.02710192  .00038153  00000+0  13882-2 0  9993
2 66802  43.0035  20.8369 0001539 259.3561 100.7118 15.27595342 27499
STARLINK-35565          
1 66803U 25278N   26149.03352976  .00032499  00000+0  11848-2 0  9994
2 66803  43.0027  20.8911 0000655 236.4918 123.5871 15.27593599 27495
STARLINK-36038          
1 66804U 25278P   26149.06550631  .00031707  00000+0  11564-2 0  9992
2 66804  43.0010  20.2714 0001690 270.0808  89.9850 15.27589694 27500
STARLINK-36049          
1 66805U 25278Q   26149.03609095  .00032146  00000+0  11710-2 0  9990
2 66805  43.0012  20.9141 0000994 304.9260  55.1498 15.27624218 27492
STARLINK-36069          
1 66806U 25278R   26149.03995223  .00021240  00000+0  77888-3 0  9994
2 66806  43.0078  20.9355 0002259 250.3629 109.6979 15.27590853 27497
STARLINK-36000          
1 66807U 25278S   26149.06936400  .00010609  00000+0  39453-3 0  9993
2 66807  43.0045  20.2961 0001008 282.9700  77.1039 15.27577437 27501
STARLINK-36071          
1 66808U 25278T   26149.04751043  .00031320  00000+0  11419-2 0  9994
2 66808  43.0028  20.1266 0002877 249.5460 110.5082 15.27604028 27504
STARLINK-35979          
1 66809U 25278U   26149.04124207  .00023856  00000+0  87269-3 0  9993
2 66809  43.0036  20.9451 0001298 297.5933  62.4787 15.27615468 27497
STARLINK-36046          
1 66810U 25278V   26149.02582075  .00022826  00000+0  83648-3 0  9997
2 66810  43.0039  20.8275 0001681 257.5365 102.5299 15.27577785 27499
STARLINK-36045          
1 66811U 25278W   26149.01810966  .00025005  00000+0  91489-3 0  9994
2 66811  43.0041  20.7674 0001024 268.1671  91.9063 15.27587744 27490
STARLINK-36054          
1 66812U 25278X   26149.01553781  .00046478  00000+0  16864-2 0  9994
2 66812  43.0040  20.7477 0001439 275.9572  84.1115 15.27609203 27494
STARLINK-36042          
1 66813U 25278Y   26148.92445794  .00033194  00000+0  12096-2 0  9992
2 66813  43.0006  20.9217 0000622 354.0185   6.0660 15.27601729 27485
STARLINK-35984          
1 66814U 25278Z   26148.33854647  .00021740  00000+0  79708-3 0  9997
2 66814  42.9987  24.2649 0000927 309.9656  50.1114 15.27584640 27394
STARLINK-35985          
1 66815U 25278AA  26148.94630324  .00022689  00000+0  83129-3 0  9994
2 66815  42.9996  21.0850 0000749  32.6228 327.4669 15.27588209 28695
STARLINK-36098          
1 66816U 25278AB  26148.91802964  .00029118  00000+0  10631-2 0  9994
2 66816  43.0021  20.8719 0001055 287.4282  72.6454 15.27593407 27482
STARLINK-35995          
1 66817U 25278AC  26149.00782770  .00025218  00000+0  92219-3 0  9998
2 66817  43.0012  20.6927 0000772 290.0520  70.0249 15.27602203 27492
STARLINK-35994          
1 66818U 25278AD  26148.35652977  .00007329  00000+0  27546-3 0  9995
2 66818  43.0026  24.4067 0001632 262.3967  97.6699 15.27594221 27391
STARLINK-35989          
1 66819U 25278AE  26149.01939312  .00024516  00000+0  89746-3 0  9998
2 66819  43.0047  20.7709 0001270 263.2807  96.7900 15.27580360 27493
KOMPSAT-7               
1 66820U 25279A   26148.87241657  .00003180  00000+0  25861-3 0  9994
2 66820  97.7006  97.6059 0010514  72.6827 287.5546 15.00247046 26725
STARLINK-35966          
1 66821U 25280A   26149.01797044  .00939045  00000+0  70120-1 0  9994
2 66821  70.0026 132.1140 0003242 231.4005 128.6865 15.00070391 28101
STARLINK-35958          
1 66822U 25280B   26149.18521588  .00002557  00000+0  22193-3 0  9999
2 66822  70.0007 131.4884 0003594 264.0229  96.0521 14.98338825 28133
STARLINK-35957          
1 66823U 25280C   26149.03500618  .00005479  00000+0  46635-3 0  9998
2 66823  70.0002 131.7657 0004154 263.2881  96.7805 14.98350673 28113
STARLINK-35896          
1 66824U 25280D   26149.20191539  .00003361  00000+0  28926-3 0  9997
2 66824  70.0004 131.5485 0003111 266.7394  93.3410 14.98344116 28134
STARLINK-35476          
1 66825U 25280E   26149.21028618  .00010254  00000+0  86588-3 0  9993
2 66825  70.0004 131.5766 0003205 267.6084  92.4709 14.98329640 28122
STARLINK-35898          
1 66826U 25280F   26149.02665150  .00004623  00000+0  39487-3 0  9990
2 66826  70.0007 131.7377 0004242 260.7070  99.3610 14.98339326 28115
STARLINK-35959          
1 66827U 25280G   26149.19356294  .00006222  00000+0  52857-3 0  9998
2 66827  70.0009 131.5173 0003603 261.2438  98.8313 14.98344552 28137
STARLINK-35982          
1 66828U 25280H   26149.00580752  .00003673  00000+0  31542-3 0  9992
2 66828  70.0006 132.0656 0003681 264.3893  95.6847 14.98336499 28107
